{
  "type": "FeatureCollection",
  "features": [
    {
      "type": "Feature",
      "properties": {
        "norad_id": 66425,
        "name": "STARLINK-35555",
        "group": "last-30-days",
        "lat": -25.626991114065888,
        "lon": -75.84656629385991,
        "alt_km": 445.8582677161239,
        "timestamp": "2025-12-08T08:58:59.555761+00:00",
        "meta_object_name": "STARLINK-35555",
        "meta_object_id": "2025-259D",
        "meta_epoch": "2025-12-07T22:00:03.000096",
        "meta_mean_motion": 15.40683529,
        "meta_eccentricity": 0.00014359,
        "meta_inclination": 43.0008,
        "meta_ra_of_asc_node": 75.8092,
        "meta_arg_of_pericenter": 268.2509,
        "meta_mean_anomaly": 289.9881,
        "meta_ephemeris_type": 0,
        "meta_classification_type": "U",
        "meta_norad_cat_id": 66425,
        "meta_element_set_no": 999,
        "meta_rev_at_epoch": 550,
        "meta_bstar": 0.00031985416,
        "meta_mean_motion_dot": 0.00013073,
        "meta_mean_motion_ddot": 0,
        "tle_line1": "1 66425U 25259D   25341.91670139  .00013073  00000+0  31985-3 0  9999",
        "tle_line2": "2 66425  43.0008  75.8092 0001435 268.2509 289.9881 15.40683529  5504"
      },
      "geometry": {
        "type": "Point",
        "coordinates": [
          -75.84656629385991,
          -25.626991114065888
        ]
      }
    },
    {
      "type": "Feature",
      "properties": {
        "norad_id": 66426,
        "name": "STARLINK-35589",
        "group": "last-30-days",
        "lat": -32.398848477281376,
        "lon": -63.937363540814204,
        "alt_km": 446.2168690293347,
        "timestamp": "2025-12-08T08:58:59.555771+00:00",
        "meta_object_name": "STARLINK-35589",
        "meta_object_id": "2025-259E",
        "meta_epoch": "2025-12-07T22:00:03.000096",
        "meta_mean_motion": 15.40678024,
        "meta_eccentricity": 0.00014311,
        "meta_inclination": 43.0008,
        "meta_ra_of_asc_node": 75.7799,
        "meta_arg_of_pericenter": 272.5271,
        "meta_mean_anomaly": 298.1614,
        "meta_ephemeris_type": 0,
        "meta_classification_type": "U",
        "meta_norad_cat_id": 66426,
        "meta_element_set_no": 999,
        "meta_rev_at_epoch": 550,
        "meta_bstar": 0.00038067242,
        "meta_mean_motion_dot": 0.00015619,
        "meta_mean_motion_ddot": 0,
        "tle_line1": "1 66426U 25259E   25341.91670139  .00015619  00000+0  38067-3 0  9996",
        "tle_line2": "2 66426  43.0008  75.7799 0001431 272.5271 298.1614 15.40678024  5508"
      },
      "geometry": {
        "type": "Point",
        "coordinates": [
          -63.937363540814204,
          -32.398848477281376
        ]
      }
    },
    {
      "type": "Feature",
      "properties": {
        "norad_id": 66427,
        "name": "STARLINK-35611",
        "group": "last-30-days",
        "lat": -37.871150734949154,
        "lon": -50.32336049785105,
        "alt_km": 446.39351608542165,
        "timestamp": "2025-12-08T08:58:59.555782+00:00",
        "meta_object_name": "STARLINK-35611",
        "meta_object_id": "2025-259F",
        "meta_epoch": "2025-12-07T22:00:03.000096",
        "meta_mean_motion": 15.40686542,
        "meta_eccentricity": 0.00019202,
        "meta_inclination": 43.0009,
        "meta_ra_of_asc_node": 75.7488,
        "meta_arg_of_pericenter": 293.2933,
        "meta_mean_anomaly": 289.8166,
        "meta_ephemeris_type": 0,
        "meta_classification_type": "U",
        "meta_norad_cat_id": 66427,
        "meta_element_set_no": 999,
        "meta_rev_at_epoch": 550,
        "meta_bstar": 0.00031861213,
        "meta_mean_motion_dot": 0.00013022,
        "meta_mean_motion_ddot": 0,
        "tle_line1": "1 66427U 25259F   25341.91670139  .00013022  00000+0  31861-3 0  9998",
        "tle_line2": "2 66427  43.0009  75.7488 0001920 293.2933 289.8166 15.40686542  5506"
      },
      "geometry": {
        "type": "Point",
        "coordinates": [
          -50.32336049785105,
          -37.871150734949154
        ]
      }
    },
    {
      "type": "Feature",
      "properties": {
        "norad_id": 66428,
        "name": "STARLINK-35610",
        "group": "last-30-days",
        "lat": -41.54033942955629,
        "lon": -34.97706793496088,
        "alt_km": 445.9595792698419,
        "timestamp": "2025-12-08T08:58:59.555795+00:00",
        "meta_object_name": "STARLINK-35610",
        "meta_object_id": "2025-259G",
        "meta_epoch": "2025-12-07T22:00:03.000096",
        "meta_mean_motion": 15.40723937,
        "meta_eccentricity": 0.00019664,
        "meta_inclination": 43.001,
        "meta_ra_of_asc_node": 75.7193,
        "meta_arg_of_pericenter": 269.3908,
        "meta_mean_anomaly": 326.0288,
        "meta_ephemeris_type": 0,
        "meta_classification_type": "U",
        "meta_norad_cat_id": 66428,
        "meta_element_set_no": 999,
        "meta_rev_at_epoch": 550,
        "meta_bstar": 0.00035605986,
        "meta_mean_motion_dot": 0.0001461,
        "meta_mean_motion_ddot": 0,
        "tle_line1": "1 66428U 25259G   25341.91670139  .00014610  00000+0  35606-3 0  9994",
        "tle_line2": "2 66428  43.0010  75.7193 0001966 269.3908 326.0288 15.40723937  5507"
      },
      "geometry": {
        "type": "Point",
        "coordinates": [
          -34.97706793496088,
          -41.54033942955629
        ]
      }
    },
    {
      "type": "Feature",
      "properties": {
        "norad_id": 66429,
        "name": "STARLINK-35533",
        "group": "last-30-days",
        "lat": -42.97371767870826,
        "lon": -18.21960689230436,
        "alt_km": 446.4598426327575,
        "timestamp": "2025-12-08T08:58:59.555805+00:00",
        "meta_object_name": "STARLINK-35533",
        "meta_object_id": "2025-259H",
        "meta_epoch": "2025-12-07T22:00:03.000096",
        "meta_mean_motion": 15.40679474,
        "meta_eccentricity": 0.00014711,
        "meta_inclination": 43.001,
        "meta_ra_of_asc_node": 75.6871,
        "meta_arg_of_pericenter": 277.6109,
        "meta_mean_anomaly": 330.388,
        "meta_ephemeris_type": 0,
        "meta_classification_type": "U",
        "meta_norad_cat_id": 66429,
        "meta_element_set_no": 999,
        "meta_rev_at_epoch": 550,
        "meta_bstar": 0.00032200517,
        "meta_mean_motion_dot": 0.00013161,
        "meta_mean_motion_ddot": 0,
        "tle_line1": "1 66429U 25259H   25341.91670139  .00013161  00000+0  32201-3 0  9993",
        "tle_line2": "2 66429  43.0010  75.6871 0001471 277.6109 330.3880 15.40679474  5508"
      },
      "geometry": {
        "type": "Point",
        "coordinates": [
          -18.21960689230436,
          -42.97371767870826
        ]
      }
    },
    {
      "type": "Feature",
      "properties": {
        "norad_id": 66430,
        "name": "STARLINK-35470",
        "group": "last-30-days",
        "lat": -41.91970229454351,
        "lon": -1.4532414281528934,
        "alt_km": 446.0623524282664,
        "timestamp": "2025-12-08T08:58:59.555816+00:00",
        "meta_object_name": "STARLINK-35470",
        "meta_object_id": "2025-259J",
        "meta_epoch": "2025-12-07T22:00:03.000096",
        "meta_mean_motion": 15.40685026,
        "meta_eccentricity": 0.00019374,
        "meta_inclination": 43.0007,
        "meta_ra_of_asc_node": 75.6578,
        "meta_arg_of_pericenter": 280.8976,
        "meta_mean_anomaly": 339.5265,
        "meta_ephemeris_type": 0,
        "meta_classification_type": "U",
        "meta_norad_cat_id": 66430,
        "meta_element_set_no": 999,
        "meta_rev_at_epoch": 550,
        "meta_bstar": 0.00033698104,
        "meta_mean_motion_dot": 0.00013791,
        "meta_mean_motion_ddot": 0,
        "tle_line1": "1 66430U 25259J   25341.91670139  .00013791  00000+0  33698-3 0  9995",
        "tle_line2": "2 66430  43.0007  75.6578 0001937 280.8976 339.5265 15.40685026  5503"
      },
      "geometry": {
        "type": "Point",
        "coordinates": [
          -1.4532414281528934,
          -41.91970229454351
        ]
      }
    },
    {
      "type": "Feature",
      "properties": {
        "norad_id": 66431,
        "name": "STARLINK-35439",
        "group": "last-30-days",
        "lat": -38.554314553647465,
        "lon": 14.201568656404863,
        "alt_km": 446.4707245290356,
        "timestamp": "2025-12-08T08:58:59.555826+00:00",
        "meta_object_name": "STARLINK-35439",
        "meta_object_id": "2025-259K",
        "meta_epoch": "2025-12-07T22:00:03.000096",
        "meta_mean_motion": 15.4068472,
        "meta_eccentricity": 0.00012017,
        "meta_inclination": 43.0008,
        "meta_ra_of_asc_node": 75.6258,
        "meta_arg_of_pericenter": 269.0304,
        "meta_mean_anomaly": 3.8245,
        "meta_ephemeris_type": 0,
        "meta_classification_type": "U",
        "meta_norad_cat_id": 66431,
        "meta_element_set_no": 999,
        "meta_rev_at_epoch": 550,
        "meta_bstar": 0.00036923067,
        "meta_mean_motion_dot": 0.00015143,
        "meta_mean_motion_ddot": 0,
        "tle_line1": "1 66431U 25259K   25341.91670139  .00015143  00000+0  36923-3 0  9993",
        "tle_line2": "2 66431  43.0008  75.6258 0001201 269.0304   3.8245 15.40684720  5507"
      },
      "geometry": {
        "type": "Point",
        "coordinates": [
          14.201568656404863,
          -38.554314553647465
        ]
      }
    }
  ]
}